start=new Date('2022-01-24T00:00:00.000Z').valueOf();
sats=[{"PERIAPSIS":"545.814","PERIOD":"95.592","BSTAR":"0.00008167500000","TIME_SYSTEM":"UTC","REF_FRAME":"TEME","ECCENTRICITY":"0.00019950","INCLINATION":"53.0543","MEAN_MOTION_DOT":"0.00000935","TLE_LINE1":"1 48387U 21038AL  22023.65869547  .00000935  00000-0  81675-4 0  9991","ARG_OF_PERICENTER":"51.6063","EPHEMERIS_TYPE":"0","SEMIMAJOR_AXIS":"6925.331","LAUNCH_DATE":"2021-05-04","COUNTRY_CODE":"US","MEAN_MOTION":"15.06405820","NORAD_CAT_ID":"48387","CLASSIFICATION_TYPE":"U","CENTER_NAME":"EARTH","SITE":"AFETR","OBJECT_NAME":"STARLINK-2600","TLE_LINE2":"2 48387  53.0543 267.4621 0001995  51.6063 308.5105 15.06405820 40833","MEAN_ANOMALY":"308.5105","RCS_SIZE":"LARGE","APOAPSIS":"548.577","ELEMENT_SET_NO":"999","EPOCH":"2022-01-23T15:48:31.288608","MEAN_ELEMENT_THEORY":"SGP4","OBJECT_ID":"2021-038AL","FILE":"3281059","MEAN_MOTION_DDOT":"0.0000000000000","REV_AT_EPOCH":"4083","OBJECT_TYPE":"PAYLOAD","RA_OF_ASC_NODE":"267.4621","DECAY_DATE":null,"GP_ID":"194470316"},{"PERIOD":"95.593","BSTAR":"0.00018148000000","PERIAPSIS":"546.024","REF_FRAME":"TEME","ECCENTRICITY":"0.00017440","TIME_SYSTEM":"UTC","MEAN_MOTION_DOT":"0.00002422","INCLINATION":"53.0551","LAUNCH_DATE":"2021-05-04","SEMIMAJOR_AXIS":"6925.366","EPHEMERIS_TYPE":"0","TLE_LINE1":"1 48388U 21038AM  22023.38688799  .00002422  00000-0  18148-3 0  9997","ARG_OF_PERICENTER":"66.6467","CENTER_NAME":"EARTH","CLASSIFICATION_TYPE":"U","MEAN_MOTION":"15.06394216","COUNTRY_CODE":"US","NORAD_CAT_ID":"48388","TLE_LINE2":"2 48388  53.0551 268.6678 0001744  66.6467 293.4705 15.06394216 40209","OBJECT_NAME":"STARLINK-2594","SITE":"AFETR","OBJECT_ID":"2021-038AM","FILE":"3280923","RCS_SIZE":"MEDIUM","EPOCH":"2022-01-23T09:17:07.122336","APOAPSIS":"548.439","ELEMENT_SET_NO":"999","MEAN_ELEMENT_THEORY":"SGP4","MEAN_ANOMALY":"293.4705","DECAY_DATE":null,"GP_ID":"194463213","OBJECT_TYPE":"PAYLOAD","RA_OF_ASC_NODE":"268.6678","MEAN_MOTION_DDOT":"0.0000000000000","REV_AT_EPOCH":"4020"},{"CENTER_NAME":"EARTH","CLASSIFICATION_TYPE":"U","COUNTRY_CODE":"US","MEAN_MOTION":"15.06403147","NORAD_CAT_ID":"48389","TLE_LINE2":"2 48389  53.0554 263.7233 0002011  64.6535 295.4662 15.06403147 40262","SITE":"AFETR","OBJECT_NAME":"STARLINK-1904","RCS_SIZE":"LARGE","EPOCH":"2022-01-23T08:59:12.200928","APOAPSIS":"548.597","ELEMENT_SET_NO":"999","MEAN_ELEMENT_THEORY":"SGP4","OBJECT_ID":"2021-038AN","FILE":"3280923","MEAN_ANOMALY":"295.4662","OBJECT_TYPE":"PAYLOAD","RA_OF_ASC_NODE":"263.7233","DECAY_DATE":null,"GP_ID":"194463962","MEAN_MOTION_DDOT":"0.0000000000000","REV_AT_EPOCH":"4026","PERIOD":"95.592","BSTAR":"0.00013917000000","PERIAPSIS":"545.811","REF_FRAME":"TEME","ECCENTRICITY":"0.00020110","TIME_SYSTEM":"UTC","MEAN_MOTION_DOT":"0.00001792","INCLINATION":"53.0554","SEMIMAJOR_AXIS":"6925.339","LAUNCH_DATE":"2021-05-04","TLE_LINE1":"1 48389U 21038AN  22023.37444677  .00001792  00000-0  13917-3 0  9990","ARG_OF_PERICENTER":"64.6535","EPHEMERIS_TYPE":"0"},{"ECCENTRICITY":"0.00018410","REF_FRAME":"TEME","TIME_SYSTEM":"UTC","BSTAR":"-0.00009235700000","PERIOD":"95.592","PERIAPSIS":"545.947","SEMIMAJOR_AXIS":"6925.357","LAUNCH_DATE":"2021-05-04","ARG_OF_PERICENTER":"62.4793","TLE_LINE1":"1 48390U 21038AP  22023.37075640 -.00001657  00000-0 -92357-4 0  9990","EPHEMERIS_TYPE":"0","MEAN_MOTION_DOT":"-0.00001657","INCLINATION":"53.0541","TLE_LINE2":"2 48390  53.0541 263.7508 0001841  62.4793 297.6383 15.06397286 41482","SITE":"AFETR","OBJECT_NAME":"STARLINK-2586","CENTER_NAME":"EARTH","CLASSIFICATION_TYPE":"U","NORAD_CAT_ID":"48390","COUNTRY_CODE":"US","MEAN_MOTION":"15.06397286","RA_OF_ASC_NODE":"263.7508","OBJECT_TYPE":"PAYLOAD","GP_ID":"194464214","DECAY_DATE":null,"REV_AT_EPOCH":"4148","MEAN_MOTION_DDOT":"0.0000000000000","MEAN_ELEMENT_THEORY":"SGP4","APOAPSIS":"548.497","RCS_SIZE":"LARGE","ELEMENT_SET_NO":"999","EPOCH":"2022-01-23T08:53:53.352960","FILE":"3280923","OBJECT_ID":"2021-038AP","MEAN_ANOMALY":"297.6383"},{"DECAY_DATE":null,"GP_ID":"194464457","OBJECT_TYPE":"PAYLOAD","RA_OF_ASC_NODE":"263.7642","MEAN_MOTION_DDOT":"0.0000000000000","REV_AT_EPOCH":"4148","OBJECT_ID":"2021-038AQ","FILE":"3280923","ELEMENT_SET_NO":"999","RCS_SIZE":"LARGE","APOAPSIS":"548.456","EPOCH":"2022-01-23T08:48:35.143488","MEAN_ELEMENT_THEORY":"SGP4","MEAN_ANOMALY":"299.3960","TLE_LINE2":"2 48391  53.0540 263.7642 0001850  60.7214 299.3960 15.06412639 41480","OBJECT_NAME":"STARLINK-2607","SITE":"AFETR","CENTER_NAME":"EARTH","CLASSIFICATION_TYPE":"U","COUNTRY_CODE":"US","MEAN_MOTION":"15.06412639","NORAD_CAT_ID":"48391","LAUNCH_DATE":"2021-05-04","SEMIMAJOR_AXIS":"6925.310","EPHEMERIS_TYPE":"0","TLE_LINE1":"1 48391U 21038AQ  22023.36707342  .00005026  00000-0  35598-3 0  9996","ARG_OF_PERICENTER":"60.7214","MEAN_MOTION_DOT":"0.00005026","INCLINATION":"53.0540","REF_FRAME":"TEME","ECCENTRICITY":"0.00018500","TIME_SYSTEM":"UTC","PERIOD":"95.591","BSTAR":"0.00035598000000","PERIAPSIS":"545.894"},{"INCLINATION":"53.0541","MEAN_MOTION_DOT":"0.00004412","TLE_LINE1":"1 48392U 21038AR  22023.36338682  .00004412  00000-0  31483-3 0  9991","ARG_OF_PERICENTER":"66.8221","EPHEMERIS_TYPE":"0","SEMIMAJOR_AXIS":"6925.308","LAUNCH_DATE":"2021-05-04","PERIAPSIS":"545.817","PERIOD":"95.591","BSTAR":"0.00031483000000","TIME_SYSTEM":"UTC","REF_FRAME":"TEME","ECCENTRICITY":"0.00019590","MEAN_ANOMALY":"293.2975","EPOCH":"2022-01-23T08:43:16.621248","RCS_SIZE":"LARGE","APOAPSIS":"548.530","ELEMENT_SET_NO":"999","MEAN_ELEMENT_THEORY":"SGP4","OBJECT_ID":"2021-038AR","FILE":"3280923","MEAN_MOTION_DDOT":"0.0000000000000","REV_AT_EPOCH":"4148","OBJECT_TYPE":"PAYLOAD","RA_OF_ASC_NODE":"263.7792","DECAY_DATE":null,"GP_ID":"194463713","COUNTRY_CODE":"US","MEAN_MOTION":"15.06413108","NORAD_CAT_ID":"48392","CENTER_NAME":"EARTH","CLASSIFICATION_TYPE":"U","SITE":"AFETR","OBJECT_NAME":"STARLINK-2605","TLE_LINE2":"2 48392  53.0541 263.7792 0001959  66.8221 293.2975 15.06413108 41484"},{"INCLINATION":"53.0561","MEAN_MOTION_DOT":"0.00000988","TLE_LINE1":"1 48393U 21038AS  22023.82412234  .00000988  00000-0  85241-4 0  9995","ARG_OF_PERICENTER":"68.0223","EPHEMERIS_TYPE":"0","SEMIMAJOR_AXIS":"6925.375","LAUNCH_DATE":"2021-05-04","PERIAPSIS":"545.969","PERIOD":"95.593","BSTAR":"0.00008524100000","TIME_SYSTEM":"UTC","REF_FRAME":"TEME","ECCENTRICITY":"0.00018350","MEAN_ANOMALY":"292.0961","EPOCH":"2022-01-23T19:46:44.170176","RCS_SIZE":"LARGE","APOAPSIS":"548.511","ELEMENT_SET_NO":"999","MEAN_ELEMENT_THEORY":"SGP4","OBJECT_ID":"2021-038AS","FILE":"3281175","MEAN_MOTION_DDOT":"0.0000000000000","REV_AT_EPOCH":"4092","OBJECT_TYPE":"PAYLOAD","RA_OF_ASC_NODE":"261.7214","DECAY_DATE":null,"GP_ID":"194472961","COUNTRY_CODE":"US","MEAN_MOTION":"15.06391354","NORAD_CAT_ID":"48393","CENTER_NAME":"EARTH","CLASSIFICATION_TYPE":"U","SITE":"AFETR","OBJECT_NAME":"STARLINK-2602","TLE_LINE2":"2 48393  53.0561 261.7214 0001835  68.0223 292.0961 15.06391354 40921"},{"OBJECT_TYPE":"PAYLOAD","RA_OF_ASC_NODE":"263.8077","DECAY_DATE":null,"GP_ID":"194464714","MEAN_MOTION_DDOT":"0.0000000000000","REV_AT_EPOCH":"4148","APOAPSIS":"548.600","RCS_SIZE":"LARGE","EPOCH":"2022-01-23T08:32:39.912000","ELEMENT_SET_NO":"999","MEAN_ELEMENT_THEORY":"SGP4","OBJECT_ID":"2021-038AT","FILE":"3280923","MEAN_ANOMALY":"298.4266","TLE_LINE2":"2 48394  53.0551 263.8077 0001975  61.6922 298.4266 15.06393750 41483","SITE":"AFETR","OBJECT_NAME":"STARLINK-2573","CLASSIFICATION_TYPE":"U","CENTER_NAME":"EARTH","COUNTRY_CODE":"US","MEAN_MOTION":"15.06393750","NORAD_CAT_ID":"48394","SEMIMAJOR_AXIS":"6925.368","LAUNCH_DATE":"2021-05-04","TLE_LINE1":"1 48394U 21038AT  22023.35601750  .00000862  00000-0  76768-4 0  9992","ARG_OF_PERICENTER":"61.6922","EPHEMERIS_TYPE":"0","MEAN_MOTION_DOT":"0.00000862","INCLINATION":"53.0551","REF_FRAME":"TEME","ECCENTRICITY":"0.00019750","TIME_SYSTEM":"UTC","PERIOD":"95.593","BSTAR":"0.00007676800000","PERIAPSIS":"545.865"},{"PERIOD":"95.592","BSTAR":"0.00008129600000","PERIAPSIS":"545.862","REF_FRAME":"TEME","ECCENTRICITY":"0.00019430","TIME_SYSTEM":"UTC","MEAN_MOTION_DOT":"0.00000929","INCLINATION":"53.0538","SEMIMAJOR_AXIS":"6925.343","LAUNCH_DATE":"2021-05-04","TLE_LINE1":"1 48395U 21038AU  22023.80475556  .00000929  00000-0  81296-4 0  9992","ARG_OF_PERICENTER":"51.4928","EPHEMERIS_TYPE":"0","CLASSIFICATION_TYPE":"U","CENTER_NAME":"EARTH","MEAN_MOTION":"15.06401930","COUNTRY_CODE":"US","NORAD_CAT_ID":"48395","TLE_LINE2":"2 48395  53.0538 261.7929 0001943  51.4928 308.6235 15.06401930 40928","SITE":"AFETR","OBJECT_NAME":"STARLINK-2574","RCS_SIZE":"LARGE","APOAPSIS":"548.553","ELEMENT_SET_NO":"999","EPOCH":"2022-01-23T19:18:50.880384","MEAN_ELEMENT_THEORY":"SGP4","OBJECT_ID":"2021-038AU","FILE":"3281175","MEAN_ANOMALY":"308.6235","OBJECT_TYPE":"PAYLOAD","RA_OF_ASC_NODE":"261.7929","DECAY_DATE":null,"GP_ID":"194472950","MEAN_MOTION_DDOT":"0.0000000000000","REV_AT_EPOCH":"4092"},{"SEMIMAJOR_AXIS":"6925.346","LAUNCH_DATE":"2021-05-04","TLE_LINE1":"1 48396U 21038AV  22023.81675174  .00000847  00000-0  75763-4 0  9993","ARG_OF_PERICENTER":"60.6299","EPHEMERIS_TYPE":"0","MEAN_MOTION_DOT":"0.00000847","INCLINATION":"53.0554","REF_FRAME":"TEME","ECCENTRICITY":"0.00017910","TIME_SYSTEM":"UTC","PERIOD":"95.592","BSTAR":"0.00007576300000","PERIAPSIS":"545.971","OBJECT_TYPE":"PAYLOAD","RA_OF_ASC_NODE":"261.7413","DECAY_DATE":null,"GP_ID":"194472958","MEAN_MOTION_DDOT":"0.0000000000000","REV_AT_EPOCH":"4092","APOAPSIS":"548.451","RCS_SIZE":"LARGE","ELEMENT_SET_NO":"999","EPOCH":"2022-01-23T19:36:07.350336","MEAN_ELEMENT_THEORY":"SGP4","OBJECT_ID":"2021-038AV","FILE":"3281175","MEAN_ANOMALY":"299.4868","TLE_LINE2":"2 48396  53.0554 261.7413 0001791  60.6299 299.4868 15.06400890 40922","SITE":"AFETR","OBJECT_NAME":"STARLINK-2575","CLASSIFICATION_TYPE":"U","CENTER_NAME":"EARTH","COUNTRY_CODE":"US","MEAN_MOTION":"15.06400890","NORAD_CAT_ID":"48396"}];
